1 45726U 20037D   23197.73267858  .00002181  00000-0  20454-3 0  9994
2 45726  97.7601  14.2450 0014308 143.6869 216.5325 14.94967900165741
1 45726U 20037D   23198.73666550  .00002474  00000-0  23130-3 0  9996
2 45726  97.7602  15.2381 0014328 140.8445 219.3815 14.94973843165891
1 45726U 20037D   23199.94144513  .00002580  00000-0  24092-3 0  9996
2 45726  97.7601  16.4298 0014374 137.3450 222.8889 14.94980222166078
1 45726U 20037D   23201.48087914  .00002780  00000-0  25909-3 0  9990
2 45726  97.7602  17.9526 0014452 132.8267 227.4170 14.94988409166307
1 45726U 20037D   23202.48485285  .00002862  00000-0  26659-3 0  9998
2 45726  97.7604  18.9459 0014522 129.7842 230.4660 14.94994069166450
1 45726U 20037D   23205.42981968  .00003122  00000-0  29017-3 0  9995
2 45726  97.7611  21.8594 0014806 120.4624 239.8061 14.95011766166893
1 45726U 20037D   23206.43377712  .00003307  00000-0  30694-3 0  9991
2 45726  97.7613  22.8529 0014888 117.3327 242.9411 14.95018579167040
1 45726U 20037D   23207.43772974  .00003682  00000-0  34106-3 0  9999
2 45726  97.7614  23.8463 0014963 114.1561 246.1226 14.95026297167190
1 45726U 20037D   23208.44167682  .00003738  00000-0  34607-3 0  9993
2 45726  97.7615  24.8396 0015026 110.9738 249.3092 14.95033713167342
1 45726U 20037D   23208.44167682  .00003738  00000-0  34607-3 0  9993
2 45726  97.7615  24.8396 0015026 110.9738 249.3092 14.95033713167342
1 45726U 20037D   23208.91018374  .00003595  00000-0  33303-3 0  9991
2 45726  97.7616  25.3031 0015063 109.5714 250.7134 14.95036775167416
1 45726U 20037D   23209.44561879  .00003399  00000-0  31511-3 0  9994
2 45726  97.7616  25.8329 0015069 107.8334 252.4532 14.95040214167498
1 45726U 20037D   23210.44955512  .00003382  00000-0  31353-3 0  9993
2 45726  97.7614  26.8262 0015079 104.6949 255.5944 14.95048062167648
1 45726U 20037D   23211.45348677  .00003106  00000-0  28832-3 0  9995
2 45726  97.7614  27.8195 0015061 101.5887 258.7025 14.95054710167790
1 45726U 20037D   23212.45741350  .00003094  00000-0  28723-3 0  9996
2 45726  97.7613  28.8128 0015026  98.5010 261.7914 14.95061873167946
1 45726U 20037D   23213.79597682  .00002693  00000-0  25064-3 0  9990
2 45726  97.7614  30.1372 0014959  94.4110 265.8820 14.95069044168146
1 45726U 20037D   23215.00067762  .00002768  00000-0  25742-3 0  9993
2 45726  97.7614  31.3292 0014875  90.7917 269.5008 14.95076348168325
1 45726U 20037D   23216.07151929  .00002785  00000-0  25896-3 0  9999
2 45726  97.7616  32.3889 0014805  87.5443 272.7472 14.95081734168484
1 45726U 20037D   23217.41006490  .00003110  00000-0  28845-3 0  9990
2 45726  97.7619  33.7138 0014733  83.5802 276.7095 14.95089796168687
1 45726U 20037D   23218.48089626  .00002856  00000-0  26530-3 0  9995
2 45726  97.7621  34.7735 0014673  80.4786 279.8092 14.95095002168840
1 45726U 20037D   23219.75250258  .00003094  00000-0  28696-3 0  9997
2 45726  97.7620  36.0320 0014663  76.7625 283.5231 14.95103156169032
1 45726U 20037D   23220.75639733  .00003301  00000-0  30575-3 0  9998
2 45726  97.7620  37.0254 0014660  73.8371 286.4461 14.95109953169186
1 45726U 20037D   23221.76028822  .00003055  00000-0  28330-3 0  9993
2 45726  97.7620  38.0190 0014688  70.9136 289.3674 14.95115108169337
1 45726U 20037D   23222.76417480  .00002985  00000-0  27689-3 0  9993
2 45726  97.7620  39.0124 0014722  67.9750 292.3033 14.95121011169481
1 45726U 20037D   23223.76805728  .00003084  00000-0  28583-3 0  9995
2 45726  97.7620  40.0060 0014750  65.0107 295.2644 14.95127427169632
1 45726U 20037D   23224.77193500  .00003352  00000-0  31019-3 0  9991
2 45726  97.7619  40.9996 0014764  62.0425 298.2288 14.95134642169782
1 45726U 20037D   23225.77580819  .00003339  00000-0  30891-3 0  9997
2 45726  97.7620  41.9931 0014761  59.0086 301.2582 14.95141159169930
1 45726U 20037D   23227.04737425  .00003267  00000-0  30233-3 0  9996
2 45726  97.7623  43.2517 0014717  55.0590 305.2011 14.95149451170122
1 45726U 20037D   23228.05123677  .00003190  00000-0  29528-3 0  9996
2 45726  97.7625  44.2453 0014658  51.7985 308.4553 14.95156042170275
1 45726U 20037D   23229.45663692  .00002868  00000-0  26595-3 0  9999
2 45726  97.7627  45.6363 0014586  47.1770 313.0674 14.95164399170486
1 45726U 20037D   23230.46048922  .00002515  00000-0  23390-3 0  9994
2 45726  97.7630  46.6301 0014489  43.8387 316.3981 14.95169634170633
1 45726U 20037D   23231.46433745  .00002391  00000-0  22262-3 0  9995
2 45726  97.7632  47.6238 0014374  40.4536 319.7750 14.95175286170784
1 45726U 20037D   23232.46818265  .00002345  00000-0  21839-3 0  9998
2 45726  97.7633  48.6177 0014267  37.0888 323.1316 14.95180469170934
1 45726U 20037D   23233.47202505  .00002301  00000-0  21437-3 0  9990
2 45726  97.7634  49.6116 0014165  33.7024 326.5094 14.95185018171083
1 45726U 20037D   23234.47586448  .00002447  00000-0  22759-3 0  9991
2 45726  97.7636  50.6048 0014041  30.5653 329.6383 14.95189942171239
1 45726U 20037D   23235.47970101  .00002323  00000-0  21631-3 0  9996
2 45726  97.7636  51.5989 0013992  27.1181 333.0767 14.95194176171381
1 45726U 20037D   23236.55045612  .00002521  00000-0  23432-3 0  9997
2 45726  97.7633  52.6593 0013872  23.7162 336.4695 14.95199571171548
1 45726U 20037D   23236.55045612  .00002521  00000-0  23432-3 0  9997
2 45726  97.7633  52.6593 0013872  23.7162 336.4695 14.95199571171548
1 45726U 20037D   23237.55428569  .00002512  00000-0  23345-3 0  9997
2 45726  97.7632  53.6531 0013775  20.6312 339.5462 14.95204360171690
1 45726U 20037D   23237.55428569  .00002512  00000-0  23345-3 0  9997
2 45726  97.7632  53.6531 0013775  20.6312 339.5462 14.95204360171690
1 45726U 20037D   23238.55811146  .00002815  00000-0  26093-3 0  9994
2 45726  97.7630  54.6468 0013697  17.6094 342.5599 14.95210466171840
1 45726U 20037D   23238.55811146  .00002815  00000-0  26093-3 0  9994
2 45726  97.7630  54.6468 0013697  17.6094 342.5599 14.95210466171840
1 45726U 20037D   23239.42809083  .00003031  00000-0  28046-3 0  9999
2 45726  97.7629  55.5081 0013627  15.0420 345.1204 14.95215771171977
1 45726U 20037D   23239.49501219  .00002937  00000-0  27195-3 0  9994
2 45726  97.7629  55.5743 0013618  14.8514 345.3104 14.95215872171987
1 45726U 20037D   23240.03038259  .00002932  00000-0  27152-3 0  9993
2 45726  97.7629  56.1043 0013598  13.2739 346.8837 14.95218822172063
1 45726U 20037D   23240.76651482  .00002960  00000-0  27401-3 0  9990
2 45726  97.7630  56.8329 0013528  11.0798 349.0718 14.95223102172175
1 45726U 20037D   23241.03419853  .00003048  00000-0  28201-3 0  9992
2 45726  97.7630  57.0980 0013512  10.2899 349.8596 14.95225098172210
1 45726U 20037D   23241.43572403  .00002939  00000-0  27206-3 0  9999
2 45726  97.7630  57.4955 0013482   9.0501 351.0960 14.95227004172273
1 45726U 20037D   23242.03801062  .00003109  00000-0  28751-3 0  9998
2 45726  97.7631  58.0918 0013442   7.2301 352.9111 14.95231241172360
1 45726U 20037D   23242.77413680  .00003164  00000-0  29240-3 0  9999
2 45726  97.7633  58.8206 0013389   5.0088 355.1264 14.95235848172471
1 45726U 20037D   23243.44334046  .00003129  00000-0  28921-3 0  9998
2 45726  97.7635  59.4832 0013350   2.8736 357.2559 14.95239846172571
1 45726U 20037D   23243.91178171  .00003120  00000-0  28837-3 0  9992
2 45726  97.7637  59.9471 0013318   1.3578 358.7677 14.95242835172646
1 45726U 20037D   23244.44714205  .00003233  00000-0  29859-3 0  9995
2 45726  97.7639  60.4772 0013288 359.5696   0.5510 14.95246527172723
1 45726U 20037D   23244.44714205  .00003233  00000-0  29859-3 0  9995
2 45726  97.7639  60.4772 0013288 359.5696   0.5510 14.95246527172723
1 45726U 20037D   23245.45093895  .00003278  00000-0  30266-3 0  9995
2 45726  97.7642  61.4712 0013231 356.1839   3.9279 14.95253296172878
1 45726U 20037D   23245.45093895  .00003278  00000-0  30266-3 0  9995
2 45726  97.7642  61.4712 0013231 356.1839   3.9279 14.95253296172878
1 45726U 20037D   23245.91937405  .00004258  00000-0  39142-3 0  9991
2 45726  97.7644  61.9352 0013202 354.5824   5.5252 14.95260528172942
1 45726U 20037D   23246.45472993  .00003624  00000-0  33396-3 0  9998
2 45726  97.7646  62.4653 0013177 352.5707   7.5317 14.95261831173025
1 45726U 20037D   23246.45472993  .00003624  00000-0  33396-3 0  9998
2 45726  97.7646  62.4653 0013177 352.5707   7.5317 14.95261831173025
1 45726U 20037D   23247.45851787  .00002741  00000-0  25394-3 0  9999
2 45726  97.7647  63.4595 0013109 349.0597  11.0337 14.95265798173179
1 45726U 20037D   23247.45851787  .00002741  00000-0  25394-3 0  9999
2 45726  97.7647  63.4595 0013109 349.0597  11.0337 14.95265798173179
1 45726U 20037D   23248.46230258  .00002066  00000-0  19265-3 0  9995
2 45726  97.7648  64.4535 0013037 345.3240  14.7600 14.95269499173321
1 45726U 20037D   23248.46230258  .00002066  00000-0  19265-3 0  9995
2 45726  97.7648  64.4535 0013037 345.3240  14.7600 14.95269499173321
1 45726U 20037D   23249.46608451  .00002212  00000-0  20591-3 0  9997
2 45726  97.7647  65.4477 0012986 341.5045  18.5702 14.95274709173470
1 45726U 20037D   23249.46608451  .00002212  00000-0  20591-3 0  9997
2 45726  97.7647  65.4477 0012986 341.5045  18.5702 14.95274709173470
1 45726U 20037D   23249.73375956  .00002123  00000-0  19781-3 0  9998
2 45726  97.7647  65.7128 0012957 340.5746  19.4979 14.95275393173512
1 45726U 20037D   23250.46986409  .00002094  00000-0  19519-3 0  9997
2 45726  97.7645  66.4418 0012928 337.8150  22.2509 14.95278382173620
1 45726U 20037D   23250.46986409  .00002094  00000-0  19519-3 0  9997
2 45726  97.7645  66.4418 0012928 337.8150  22.2509 14.95278382173620
1 45726U 20037D   23251.47364150  .00002317  00000-0  21538-3 0  9994
2 45726  97.7642  67.4360 0012879 334.1186  25.9389 14.95282742173775
1 45726U 20037D   23251.47364150  .00002317  00000-0  21538-3 0  9994
2 45726  97.7642  67.4360 0012879 334.1186  25.9389 14.95282742173775
1 45726U 20037D   23252.47741591  .00002389  00000-0  22184-3 0  9990
2 45726  97.7639  68.4300 0012820 330.3866  29.6628 14.95286993173921
